NORAD_CAT_ID,OBJECT_NAME,OBJECT_TYPE,EPOCH,MEAN_MOTION,ECCENTRICITY,INCLINATION,RA_OF_ASC_NODE,ARG_OF_PERICENTER,MEAN_ANOMALY,BSTAR,MEAN_MOTION_DOT,MEAN_MOTION_DDOT,TLE_LINE0,TLE_LINE1,TLE_LINE2,SEMIMAJOR_AXIS,PERIOD,APOGEE,PERIGEE,DECAYED
56810.0,STARLINK-6031,PAYLOAD,2024-04-09 20:39:27,14.98328688,0.0003097,69.9982,306.4014,269.6339,90.4465,2.5547e-05,2.12e-06,0.0,0 STARLINK-6031,1 56810U 23078AV  24100.86073587  .00000212  00000-0  25547-4 0  9993,2 56810  69.9982 306.4014 0003097 269.6339  90.4465 14.98328688 48007,6950.197,96.107,574.214,569.909,0.0
56810.0,STARLINK-6031,PAYLOAD,2024-04-09 23:51:43,14.98328785,0.0003094,69.9982,306.0647,269.6903,90.3901,2.4959e-05,2.05e-06,0.0,0 STARLINK-6031,1 56810U 23078AV  24100.99425584  .00000205  00000-0  24959-4 0  9993,2 56810  69.9982 306.0647 0003094 269.6903  90.3901 14.98328785 48023,6950.197,96.107,574.212,569.911,0.0
56810.0,STARLINK-6031,PAYLOAD,2024-04-10 20:41:28,14.98328135,0.0002945,69.9985,303.8766,269.7399,90.3422,-5.2429e-05,-7.18e-06,0.0,0 STARLINK-6031,1 56810U 23078AV  24101.86213914 -.00000718  00000-0 -52429-4 0  9996,2 56810  69.9985 303.8766 0002945 269.7399  90.3422 14.98328135 48417,6950.199,96.107,574.11,570.017,0.0
56810.0,STARLINK-6031,PAYLOAD,2024-04-10 22:17:36,14.98327922,0.0002942,69.9984,303.7083,269.7124,90.3698,-5.3448e-05,-7.31e-06,0.0,0 STARLINK-6031,1 56810U 23078AV  24101.92889938 -.00000731  00000-0 -53448-4 0  9995,2 56810  69.9984 303.7083 0002942 269.7124  90.3698 14.98327922 48160,6950.199,96.107,574.109,570.02,0.0
56810.0,STARLINK-6031,PAYLOAD,2024-04-11 14:18:57,14.98330138,0.0002992,69.998,302.0247,268.9029,91.1787,1.5353e-05,9e-07,0.0,0 STARLINK-6031,1 56810U 23078AV  24102.59649588  .00000090  00000-0  15353-4 0  9993,2 56810  69.9980 302.0247 0002992 268.9029  91.1787 14.98330138 48262,6950.192,96.107,574.137,569.978,0.0
56810.0,STARLINK-6031,PAYLOAD,2024-04-11 20:43:29,14.98330977,0.0003008,69.9982,301.3513,269.5325,90.549,2.1495e-05,1.63e-06,0.0,0 STARLINK-6031,1 56810U 23078AV  24102.86353510  .00000163  00000-0  21495-4 0  9995,2 56810  69.9982 301.3513 0003008 269.5325  90.5490 14.98330977 48565,6950.19,96.107,574.145,569.964,0.0
56810.0,STARLINK-6031,PAYLOAD,2024-04-11 22:19:37,14.98331757,0.0002993,69.9983,301.1829,269.8174,90.2642,3.0197e-05,2.67e-06,0.0,0 STARLINK-6031,1 56810U 23078AV  24102.93029435  .00000267  00000-0  30197-4 0  9993,2 56810  69.9983 301.1829 0002993 269.8174  90.2642 14.98331757 48317,6950.187,96.107,574.133,569.972,0.0
56810.0,STARLINK-6031,PAYLOAD,2024-04-12 14:20:58,14.98329608,0.0002927,69.9984,299.4989,267.5119,92.5705,1.7104e-05,1.11e-06,0.0,0 STARLINK-6031,1 56810U 23078AV  24103.59789616  .00000111  00000-0  17104-4 0  9991,2 56810  69.9984 299.4989 0002927 267.5119  92.5705 14.98329608 48413,6950.194,96.107,574.093,570.025,0.0
56810.0,STARLINK-6031,PAYLOAD,2024-04-12 22:21:38,14.98330347,0.0002919,69.9984,298.6572,267.4649,92.6176,2.3825e-05,1.91e-06,0.0,0 STARLINK-6031,1 56810U 23078AV  24103.93169533  .00000191  00000-0  23825-4 0  9994,2 56810  69.9984 298.6572 0002919 267.4649  92.6176 14.98330347 48460,6950.192,96.107,574.086,570.028,0.0
56810.0,STARLINK-6031,PAYLOAD,2024-04-13 14:22:58,14.98333031,0.0002906,69.9986,296.9739,267.4035,92.6791,1.544e-05,9.1e-07,0.0,0 STARLINK-6031,1 56810U 23078AV  24104.59929290  .00000091  00000-0  15440-4 0  9994,2 56810  69.9986 296.9739 0002906 267.4035  92.6791 14.98333031 48560,6950.184,96.107,574.068,570.029,0.0
56810.0,STARLINK-6031,PAYLOAD,2024-04-13 20:47:31,14.98333591,0.0002895,69.9987,296.3006,267.072,93.0107,1.642e-05,1.03e-06,0.0,0 STARLINK-6031,1 56810U 23078AV  24104.86633186  .00000103  00000-0  16420-4 0  9993,2 56810  69.9987 296.3006 0002895 267.0720  93.0107 14.98333591 48608,6950.182,96.107,574.059,570.035,0.0
56810.0,STARLINK-6031,PAYLOAD,2024-04-14 12:48:48,14.98366914,0.0002803,69.9996,294.62,268.0892,91.9946,0.00032392,3.778e-05,0.0,0 STARLINK-6031,1 56810U 23078AV  24105.53389189  .00003778  00000-0  32392-3 0  9995,2 56810  69.9996 294.6200 0002803 268.0892  91.9946 14.98366914 48967,6950.079,96.105,573.892,569.996,0.0
56810.0,STARLINK-6031,PAYLOAD,2024-04-14 20:49:31,14.98321907,0.0002682,69.9993,293.7775,260.8666,99.219,-0.0001589,-1.988e-05,0.0,0 STARLINK-6031,1 56810U 23078AV  24105.86772929 -.00001988  00000-0 -15890-3 0  9996,2 56810  69.9993 293.7775 0002682 260.8666  99.2190 14.98321907 49017,6950.218,96.108,573.947,570.219,0.0
56810.0,STARLINK-6031,PAYLOAD,2024-04-14 22:25:39,14.98323206,0.0002738,69.9991,293.6085,266.0686,94.016,-0.0001436,-1.806e-05,0.0,0 STARLINK-6031,1 56810U 23078AV  24105.93448834 -.00001806  00000-0 -14360-3 0  9999,2 56810  69.9991 293.6085 0002738 266.0686  94.0160 14.98323206 48765,6950.214,96.107,573.982,570.176,0.0
56810.0,STARLINK-6031,PAYLOAD,2024-04-15 14:27:00,14.9832318,0.0002732,69.9991,291.9252,263.5255,96.5593,-0.00015442,-1.935e-05,0.0,0 STARLINK-6031,1 56810U 23078AV  24106.60208920 -.00001935  00000-0 -15442-3 0  9999,2 56810  69.9991 291.9252 0002732 263.5255  96.5593 14.98323180 48869,6950.214,96.107,573.978,570.18,0.0
56810.0,STARLINK-6031,PAYLOAD,2024-04-15 20:51:32,14.98322466,0.0002774,69.999,291.2518,264.3142,95.7701,-0.00015822,-1.98e-05,0.0,0 STARLINK-6031,1 56810U 23078AV  24106.86913048 -.00001980  00000-0 -15822-3 0  9993,2 56810  69.9990 291.2518 0002774 264.3142  95.7701 14.98322466 49168,6950.216,96.107,574.009,570.153,0.0
56810.0,STARLINK-6031,PAYLOAD,2024-04-16 12:52:52,14.98344683,0.0003008,69.9985,289.5675,272.5294,87.552,-0.00041059,-4.991e-05,0.0,0 STARLINK-6031,1 56810U 23078AV  24107.53672164 -.00004991  00000-0 -41059-3 0  9995,2 56810  69.9985 289.5675 0003008 272.5294  87.5520 14.98344683 49260,6950.147,96.106,574.103,569.922,0.0
56810.0,STARLINK-6031,PAYLOAD,2024-04-16 14:29:00,14.98344759,0.0003083,69.9987,289.3988,274.7886,85.2921,-0.00040018,-4.866e-05,0.0,0 STARLINK-6031,1 56810U 23078AV  24107.60348102 -.00004866  00000-0 -40018-3 0  9990,2 56810  69.9987 289.3988 0003083 274.7886  85.2921 14.98344759 49018,6950.147,96.106,574.155,569.87,0.0
56810.0,STARLINK-6031,PAYLOAD,2024-04-16 20:53:32,14.98349148,0.0002454,70.001,288.7297,239.1592,120.9325,-0.00027018,-3.317e-05,0.0,0 STARLINK-6031,1 56810U 23078AV  24107.87051136 -.00003317  00000-0 -27018-3 0  9992,2 56810  70.0010 288.7297 0002454 239.1592 120.9325 14.98349148 49319,6950.134,96.106,573.704,570.293,0.0
56810.0,STARLINK-6031,PAYLOAD,2024-04-16 22:29:39,14.98360002,0.0002792,69.9993,288.5577,267.7192,92.3648,-0.00016865,-2.106e-05,0.0,0 STARLINK-6031,1 56810U 23078AV  24107.93726138 -.00002106  00000-0 -16865-3 0  9993,2 56810  69.9993 288.5577 0002792 267.7192  92.3648 14.98360002 49067,6950.1,96.105,573.906,570.025,0.0
56810.0,STARLINK-6031,PAYLOAD,2024-04-17 12:54:54,14.98310732,0.0003328,69.9983,287.0414,274.7545,85.3234,-2.2919e-05,-3.66e-06,0.0,0 STARLINK-6031,1 56810U 23078AV  24108.53813398 -.00000366  00000-0 -22919-4 0  9999,2 56810  69.9983 287.0414 0003328 274.7545  85.3234 14.98310732 49413,6950.252,96.108,574.431,569.804,0.0
56810.0,STARLINK-6031,PAYLOAD,2024-04-17 14:31:02,14.98309295,0.0003116,69.9978,286.8733,269.5656,90.5146,-1.3091e-05,-2.49e-06,0.0,0 STARLINK-6031,1 56810U 23078AV  24108.60489504 -.00000249  00000-0 -13091-4 0  9996,2 56810  69.9978 286.8733 0003116 269.5656  90.5146 14.98309295 49162,6950.257,96.108,574.288,569.956,0.0
56810.0,STARLINK-6031,PAYLOAD,2024-04-17 20:55:35,14.9831094,0.0003135,69.9978,286.1998,270.9062,89.1738,-2.872e-05,-4.36e-06,0.0,0 STARLINK-6031,1 56810U 23078AV  24108.87193765 -.00000436  00000-0 -28720-4 0  9999,2 56810  69.9978 286.1998 0003135 270.9062  89.1738 14.98310940 49201,6950.252,96.108,574.296,569.938,0.0
56810.0,STARLINK-6031,PAYLOAD,2024-04-18 12:56:57,14.98309561,0.0003013,69.9978,284.5165,267.6787,92.4027,-0.00016117,-2.015e-05,0.0,0 STARLINK-6031,1 56810U 23078AV  24109.53955108 -.00002015  00000-0 -16117-3 0  9991,2 56810  69.9978 284.5165 0003013 267.6787  92.4027 14.98309561 49565,6950.256,96.108,574.215,570.027,0.0
56810.0,STARLINK-6031,PAYLOAD,2024-04-18 14:33:05,14.98308969,0.000303,69.9978,284.3481,268.1558,91.9254,-0.00015573,-1.95e-05,0.0,0 STARLINK-6031,1 56810U 23078AV  24109.60631211 -.00001950  00000-0 -15573-3 0  9997,2 56810  69.9978 284.3481 0003030 268.1558  91.9254 14.98308969 49315,6950.258,96.108,574.229,570.017,0.0
56810.0,STARLINK-6031,PAYLOAD,2024-04-18 20:57:37,14.98308168,0.0002904,69.9982,283.6751,259.7713,100.3118,-0.00016713,-2.085e-05,0.0,0 STARLINK-6031,1 56810U 23078AV  24109.87335636 -.00002085  00000-0 -16713-3 0  9995,2 56810  69.9982 283.6751 0002904 259.7713 100.3118 14.98308168 49359,6950.26,96.108,574.144,570.107,0.0
56810.0,STARLINK-6031,PAYLOAD,2024-04-19 12:58:57,14.98318736,0.0003317,69.996,281.9878,267.6001,92.4779,0.00016412,1.865e-05,0.0,0 STARLINK-6031,1 56810U 23078AV  24110.54094423  .00001865  00000-0  16412-3 0  9996,2 56810  69.9960 281.9878 0003317 267.6001  92.4779 14.98318736 49719,6950.228,96.108,574.398,569.787,0.0
56810.0,STARLINK-6031,PAYLOAD,2024-04-19 14:35:05,14.98301131,0.0003715,69.9977,281.8208,274.9516,85.1219,0.00046417,5.446e-05,0.0,0 STARLINK-6031,1 56810U 23078AV  24110.60770726  .00005446  00000-0  46417-3 0  9997,2 56810  69.9977 281.8208 0003715 274.9516  85.1219 14.98301131 49468,6950.282,96.109,574.729,569.565,0.0
56810.0,STARLINK-6031,PAYLOAD,2024-04-19 19:23:29,14.98325515,0.0002497,69.9996,281.3192,246.3297,113.76,0.00026786,3.104e-05,0.0,0 STARLINK-6031,1 56810U 23078AV  24110.80797847  .00003104  00000-0  26786-3 0  9998,2 56810  69.9996 281.3192 0002497 246.3297 113.7600 14.98325515 49757,6950.207,96.107,573.807,570.336,0.0
56810.0,STARLINK-6031,PAYLOAD,2024-04-19 20:59:36,14.98335615,0.0002972,69.9982,281.1496,261.8746,98.2076,0.00034309,4.004e-05,0.0,0 STARLINK-6031,1 56810U 23078AV  24110.87473020  .00004004  00000-0  34309-3 0  9999,2 56810  69.9982 281.1496 0002972 261.8746  98.2076 14.98335615 49505,6950.176,96.107,574.106,569.975,0.0
